#aV2019  4 16  0  0  0.00000000     288 DD+AD WGS84 FIT  NGA
## 2049 172800.00000000   300.00000000 58589 0.0000000000000
+   31     1  2  3  5  6  7  8  9 10 11 12 13 14 15 16 17 18
+         19 20 21 22 23 24 25 26 27 28 29 30 31 32  0  0  0
+          0  0  0  0  0  0  0  0  0  0  0  0  0  0  0  0  0
+          0  0  0  0  0  0  0  0  0  0  0  0  0  0  0  0  0
+          0  0  0  0  0  0  0  0  0  0  0  0  0  0  0  0  0
++         2  2  2  2  2  2  2  2  2  2  2  2  2  2  2  2  2
++         2  2  2  2  2  2  2  2  2  2  2  2  2  2  0  0  0
++         0  0  0  0  0  0  0  0  0  0  0  0  0  0  0  0  0
++         0  0  0  0  0  0  0  0  0  0  0  0  0  0  0  0  0
++         0  0  0  0  0  0  0  0  0  0  0  0  0  0  0  0  0
%c cc cc ccc ccc cccc cccc cccc cccc ccccc ccccc ccccc ccccc
%c cc cc ccc ccc cccc cccc cccc cccc ccccc ccccc ccccc ccccc
%f  0.0000000  0.000000000  0.00000000000  0.000000000000000
%f  0.0000000  0.000000000  0.00000000000  0.000000000000000
%i    0    0    0    0      0      0      0      0         0
%i    0    0    0    0      0      0      0      0         0
/*      NGA, ST. LOUIS,MO.                                  
/*   EPHEMERIS COMPUTED FROM 2 DAYS OF DATA                 
/*   EPOCHA v3 SMOOTHER                                     
/*   G1762 IERS2010 SATAF SATAPC                            
*  2019  4 16  4 35  0.00000000
P  1    303.956889  15446.846249 -21740.833527   -202.802595                    
V  1 -25951.897118   8132.398591   5773.189320     -0.082406                    
P  2  19980.279509 -15185.612445   9045.186791   -190.139627                    
V  2  10951.800608  -1532.687694 -28855.983773     -0.094174                    
P  3   8097.560018  20672.135541 -14670.946985    188.240015                    
V  3 -15255.004881 -10715.695688 -23493.628520      0.001985                    
P  5  10454.211931 -11340.706628  21508.289517      1.122312                    
V  5  21256.144863  17650.413104   -816.219666     -0.000759                    
P  6  25552.940499  -6632.671316  -3029.355702    229.638765                    
V  6  -2921.051043   3477.296742 -31729.764726     -0.094490                    
P  7  15133.677372   9847.631140  19879.442879     -5.718354                    
V  7 -23074.745060   8499.301291  13063.710251     -0.074137                    
P  8  -5659.557197  25802.630025   1345.968149   -140.087492                    
V  8  -2336.029846  -2127.155525  32044.466109     -0.014005                    
P  9   9884.842398  16853.567856  17944.874102    428.035569                    
V  9  -5817.010187  22214.315630 -17628.292506     -0.064662                    
P 10 -22310.289964  -8599.544037 -11709.548138     71.681317                    
V 10  -9784.610679 -11440.884720  26710.623272     -0.097204                    
P 11  -2581.504373  20867.236600 -16894.528398   -625.616012                    
V 11 -16401.180349  12617.157964  18437.136281      0.073109                    
P 12  -6272.828748 -20884.329224 -15501.725952    250.875101                    
V 12  14504.908061  12622.645368 -23022.840274     -0.033858                    
P 13  12824.474026 -21840.154690   7815.188970    -67.611662                    
V 13   -801.748354  10345.329184  29837.968772      0.015304                    
P 14 -16100.515302   9085.915781 -18686.378980    -84.310510                    
V 14   5067.176591 -23973.982839 -15938.378638      0.014618                    
P 15   2277.068410 -26245.107446   -534.521430   -318.144951                    
V 15   4198.407979     40.615791  31263.579722      0.019989                    
P 16  -9938.721528  10755.677543  21959.090910    -32.998076                    
V 16 -19809.085288 -20193.014640   1341.496375     -0.028057                    
P 17  14700.843085    678.080573 -21699.817261     39.755558                    
V 17  -6697.406899  27677.183095  -3689.841569      0.058938                    
P 18  -9544.986115  17508.205636 -17964.339052     44.610866                    
V 18 -21002.651551   6514.982347  18135.814308      0.035070                    
P 19  16223.374633  -8186.295161 -19700.572736   -330.145339                    
V 19  -6202.466149  23498.232706 -15015.588141      0.043952                    
P 20 -22799.735356 -13628.334485  -2138.338253    524.002851                    
V 20    -93.066851  -4464.343495  30809.312563      0.002836                    
P 21 -18997.563508  -6360.703902  18174.516605   -211.501910                    
V 21  19356.457714  -9703.323752  17771.006142      0.076221                    
P 22   1109.411505  18526.664348 -18790.353420   -684.469560                    
V 22 -20581.197076 -13323.870008 -14104.100123     -0.069124                    
P 23   2752.156883  24495.819495   9657.444637   -190.027607                    
V 23  -5294.220897  11210.915243 -28276.688128      0.014772                    
P 24   3208.902171 -17128.237722 -20113.611366    -64.838485                    
V 24  24070.276618  -8122.625500  11167.081596     -0.005291                    
P 25 -16786.947234 -20010.213482  -5740.257238   -746.095606                    
V 25   6667.079931   2958.685703 -30697.006858     -0.043727                    
P 26 -18042.379123   2889.841554  19315.295366    177.152473                    
V 26 -18027.866309 -16705.986799 -14149.730794      0.098642                    
P 27 -11885.044992  20533.806009  11521.441509   -109.496045                    
V 27    716.341835 -15004.716950  27536.427736     -0.087233                    
P 28  20976.164713  11527.896894 -10803.914209    767.469136                    
V 28   8601.632325  12032.387599  28074.542647      0.002285                    
P 29  -4915.004680 -21101.989949  15333.437354    224.389275                    
V 29   6405.522350 -18446.764159 -23288.945551     -0.091077                    
P 30  23528.415324   2420.389718  12282.769658    -87.344675                    
V 30 -14159.234249   6951.784836  25605.039725     -0.068850                    
P 31 -25864.892408   6851.290819  -1582.390641     44.748318                    
V 31   1170.547456  -2927.887647 -31371.003281     -0.026569                    
P 32 -15710.246886   2957.183075 -21138.120315   -130.541223                    
V 32   4328.205374 -26660.143582  -7041.542986      0.176486                    
EOF
